{"fetched_at":"2026-03-29T16:36:15Z","count":15609,"tles":[{"name":"STARLINK-5751","line1":"1 55576U 23020H   26087.66798260  .00000193  00000+0  16891-4 0  9993","line2":"2 55576  43.0008 232.1666 0002435 270.5658  89.4914 15.26732264172113","category":"Starlink"}]}