{
  "norad_id": 55576,
  "name": "STARLINK-5751",
  "history": [
    {
      "epoch": "2026-03-28T16:01:53.696640",
      "apogee_km": 487.2600143058089,
      "perigee_km": 483.9173798913216,
      "latitude_deg": -16.04033692149297,
      "longitude_deg": 161.72632960020564,
      "semi_major_axis_km": 6863.7256970985645,
      "eccentricity": 0.0002435,
      "inclination_deg": 43.0008,
      "raan_deg": 232.1666,
      "arg_perigee_deg": 270.5658,
      "mean_anomaly_deg": 89.4914,
      "mean_motion_rev_day": 15.26732264
    }
  ]
}